{
    "links": {
        "self": "http://www.neowsapp.com/rest/v1/neo/3743124?api_key=iIulBulltgU6a56xZRHN4H3l9WmuAYTsLGpBGhQ2"
    },
    "id": "3743124",
    "neo_reference_id": "3743124",
    "name": "(2016 CV137)",
    "designation": "2016 CV137",
    "nasa_jpl_url": "http://ssd.jpl.nasa.gov/sbdb.cgi?sstr=3743124",
    "absolute_magnitude_h": 27.2,
    "estimated_diameter": {
        "kilometers": {
            "estimated_diameter_min": 0.0096506147,
            "estimated_diameter_max": 0.0215794305
        },
        "meters": {
            "estimated_diameter_min": 9.6506146958,
            "estimated_diameter_max": 21.5794304844
        },
        "miles": {
            "estimated_diameter_min": 0.0059966121,
            "estimated_diameter_max": 0.0134088323
        },
        "feet": {
            "estimated_diameter_min": 31.6621227185,
            "estimated_diameter_max": 70.7986587106
        }
    },
    "is_potentially_hazardous_asteroid": false,
    "close_approach_data": [
        {
            "close_approach_date": "2016-02-07",
            "close_approach_date_full": "2016-Feb-07 17:46",
            "epoch_date_close_approach": 1454867160000,
            "relative_velocity": {
                "kilometers_per_second": "7.9079672839",
                "kilometers_per_hour": "28468.682222094",
                "miles_per_hour": "17689.3320173895"
            },
            "miss_distance": {
                "astronomical": "0.0284928687",
                "lunar": "11.0837259243",
                "kilometers": "4262472.467709669",
                "miles": "2648577.5752606722"
            },
            "orbiting_body": "Earth"
        }
    ],
    "orbital_data": {
        "orbit_id": "3",
        "orbit_determination_date": "2017-04-06 08:28:26",
        "first_observation_date": "2016-02-06",
        "last_observation_date": "2016-02-11",
        "data_arc_in_days": 5,
        "observations_used": 14,
        "orbit_uncertainty": "8",
        "minimum_orbit_intersection": ".02807",
        "jupiter_tisserand_invariant": "3.833",
        "epoch_osculation": "2457427.5",
        "eccentricity": ".4730078744530058",
        "semi_major_axis": "1.869780547897308",
        "inclination": "6.158862383332273",
        "ascending_node_longitude": "127.8250479421926",
        "orbital_period": "933.8656105095296",
        "perihelion_distance": ".9853596252428258",
        "perihelion_argument": "31.45606643399092",
        "aphelion_distance": "2.75420147055179",
        "perihelion_time": "2457443.527671245821",
        "mean_anomaly": "353.8214218581757",
        "mean_motion": ".3854944394018098",
        "equinox": "J2000",
        "orbit_class": {
            "orbit_class_type": "APO",
            "orbit_class_description": "Near-Earth asteroid orbits which cross the Earth’s orbit similar to that of 1862 Apollo",
            "orbit_class_range": "a (semi-major axis) > 1.0 AU; q (perihelion) < 1.017 AU"
        }
    },
    "is_sentry_object": false
}